{"type": "FeatureCollection", "features": [ {"type": "Feature", "properties": {"norad_id": 66958, "name": "CZ-6A R/B", "group": "last-30-days", "lat": -22.501801542683687, "lon": -14.651989704890763, "alt_km": 966.6692351321399, "timestamp": "2025-12-10T21:43:20.864099+00:00", "meta": {"OBJECT_NAME": "CZ-6A R/B", "OBJECT_ID": "2025-287F", "EPOCH": "2025-12-10T14:56:42.203616", "MEAN_MOTION": 13.9491917, "ECCENTRICITY": 0.01071803, "INCLINATION": 86.5059, "RA_OF_ASC_NODE": 346.9056, "ARG_OF_PERICENTER": 108.4995, "MEAN_ANOMALY": 252.7862, "EPHEMERIS_TYPE": 0, "CLASSIFICATION_TYPE": "U", "NORAD_CAT_ID": 66958, "ELEMENT_SET_NO": 999, "REV_AT_EPOCH": 24, "BSTAR": 0.00061149217, "MEAN_MOTION_DOT": 8.8e-06, "MEAN_MOTION_DDOT": 0}, "tle": {"line1": "1 66958U 25287F   25344.62271069  .00000880  00000+0  61149-3 0  9998", "line2": "2 66958  86.5059 346.9056 0107180 108.4995 252.7862 13.94919170   247"}}, "geometry": {"type": "Point", "coordinates": [-14.651989704890763, -22.501801542683687]}}, {"type": "Feature", "properties": {"norad_id": 66988, "name": "YAOGAN-47", "group": "last-30-days", "lat": 21.81923797488728, "lon": 46.9776944275112, "alt_km": 496.4956505045402, "timestamp": "2025-12-10T21:43:20.864111+00:00", "meta": {"OBJECT_NAME": "YAOGAN-47", "OBJECT_ID": "2025-289A", "EPOCH": "2025-12-10T10:35:37.042080", "MEAN_MOTION": 15.2375358, "ECCENTRICITY": 0.0003184, "INCLINATION": 97.5219, "RA_OF_ASC_NODE": 49.5452, "ARG_OF_PERICENTER": 188.4341, "MEAN_ANOMALY": 171.6843, "EPHEMERIS_TYPE": 0, "CLASSIFICATION_TYPE": "U", "NORAD_CAT_ID": 66988, "ELEMENT_SET_NO": 999, "REV_AT_EPOCH": 19, "BSTAR": 0.00024588, "MEAN_MOTION_DOT": 5.84e-05, "MEAN_MOTION_DDOT": 0}, "tle": {"line1": "1 66988U 25289A   25344.44140095  .00005840  00000+0  24588-3 0  9994", "line2": "2 66988  97.5219  49.5452 0003184 188.4341 171.6843 15.23753580   195"}}, "geometry": {"type": "Point", "coordinates": [46.9776944275112, 21.81923797488728]}}, {"type": "Feature", "properties": {"norad_id": 66989, "name": "CZ-4B R/B", "group": "last-30-days", "lat": -78.11827848368134, "lon": -168.80754805799793, "alt_km": 409.03789759136, "timestamp": "2025-12-10T21:43:20.864123+00:00", "meta": {"OBJECT_NAME": "CZ-4B R/B", "OBJECT_ID": "2025-289B", "EPOCH": "2025-12-10T14:28:25.391424", "MEAN_MOTION": 15.66309569, "ECCENTRICITY": 0.0151881, "INCLINATION": 97.5238, "RA_OF_ASC_NODE": 49.786, "ARG_OF_PERICENTER": 11.0923, "MEAN_ANOMALY": 349.3621, "EPHEMERIS_TYPE": 0, "CLASSIFICATION_TYPE": "U", "NORAD_CAT_ID": 66989, "ELEMENT_SET_NO": 999, "REV_AT_EPOCH": 23, "BSTAR": 0.00027358702, "MEAN_MOTION_DOT": 0.00052933, "MEAN_MOTION_DDOT": 2.979385e-06}, "tle": {"line1": "1 66989U 25289B   25344.60307166  .00052933  29794-5  27359-3 0  9998", "line2": "2 66989  97.5238  49.7860 0151881  11.0923 349.3621 15.66309569   231"}}, "geometry": {"type": "Point", "coordinates": [-168.80754805799793, -78.11827848368134]}}, {"type": "Feature", "properties": {"norad_id": 66990, "name": "TJS-22", "group": "last-30-days", "lat": 11.78914835819797, "lon": -24.33551885165184, "alt_km": 24384.149752410663, "timestamp": "2025-12-10T21:43:20.864134+00:00", "meta": {"OBJECT_NAME": "TJS-22", "OBJECT_ID": "2025-290A", "EPOCH": "2025-12-10T07:11:32.843616", "MEAN_MOTION": 2.15443148, "ECCENTRICITY": 0.6664534, "INCLINATION": 20.1261, "RA_OF_ASC_NODE": 301.1464, "ARG_OF_PERICENTER": 180.6877, "MEAN_ANOMALY": 177.6237, "EPHEMERIS_TYPE": 0, "CLASSIFICATION_TYPE": "U", "NORAD_CAT_ID": 66990, "ELEMENT_SET_NO": 999, "REV_AT_EPOCH": 3, "BSTAR": 0.079788, "MEAN_MOTION_DOT": -3.8e-07, "MEAN_MOTION_DDOT": 0}, "tle": {"line1": "1 66990U 25290A   25344.29968569 -.00000038  00000+0  79788-1 0  9991", "line2": "2 66990  20.1261 301.1464 6664534 180.6877 177.6237  2.15443148    32"}}, "geometry": {"type": "Point", "coordinates": [-24.33551885165184, 11.78914835819797]}}, {"type": "Feature", "properties": {"norad_id": 66991, "name": "CZ-3B R/B", "group": "last-30-days", "lat": 12.821192011627419, "lon": 97.5437003299764, "alt_km": 488.85825476251284, "timestamp": "2025-12-10T21:43:20.864146+00:00", "meta": {"OBJECT_NAME": "CZ-3B R/B", "OBJECT_ID": "2025-290B", "EPOCH": "2025-12-10T06:44:55.577184", "MEAN_MOTION": 2.37676924, "ECCENTRICITY": 0.7242056, "INCLINATION": 28.4645, "RA_OF_ASC_NODE": 302.5976, "ARG_OF_PERICENTER": 179.3847, "MEAN_ANOMALY": 182.8677, "EPHEMERIS_TYPE": 0, "CLASSIFICATION_TYPE": "U", "NORAD_CAT_ID": 66991, "ELEMENT_SET_NO": 999, "REV_AT_EPOCH": 3, "BSTAR": 0.00043781, "MEAN_MOTION_DOT": 0.00018897, "MEAN_MOTION_DDOT": 4.5621e-07}, "tle": {"line1": "1 66991U 25290B   25344.28119881  .00018897  45621-6  43781-3 0  9998", "line2": "2 66991  28.4645 302.5976 7242056 179.3847 182.8677  2.37676924    37"}}, "geometry": {"type": "Point", "coordinates": [97.5437003299764, 12.821192011627419]}}]}